{"type":"FeatureCollection","features":[{"type":"Feature","properties":{"name":"St. Paul's","network":"tube","lines":"Central"},"geometry":{"type":"Point","coordinates":[-0.09749184483455592,51.514954536171196]}},{"type":"Feature","properties":{"name":"Mile End","network":"tube","lines":"District, Hammersmith & City, Central"},"geometry":{"type":"Point","coordinates":[-0.0337406981795917,51.52523625526725]}},{"type":"Feature","properties":{"name":"Bethnal Green","network":"tube","lines":"Central"},"geometry":{"type":"Point","coordinates":[-0.05466326809770473,51.52723888697573]}},{"type":"Feature","properties":{"name":"Leyton","network":"tube","lines":"Central"},"geometry":{"type":"Point","coordinates":[-0.005459434641869872,51.55660542893949]}},{"type":"Feature","properties":{"name":"Snaresbrook","network":"tube","lines":"Central"},"geometry":{"type":"Point","coordinates":[0.02142019395183,51.5806784712596]}},{"type":"Feature","properties":{"name":"Leytonstone","network":"tube","lines":"Central"},"geometry":{"type":"Point","coordinates":[0.008210661403407229,51.56832225589933]}},{"type":"Feature","properties":{"name":"Wanstead","network":"tube","lines":"Central"},"geometry":{"type":"Point","coordinates":[0.028647479421730838,51.57560299718385]}},{"type":"Feature","properties":{"name":"South Woodford","network":"tube","lines":"Central"},"geometry":{"type":"Point","coordinates":[0.027388896244924868,51.591893659186205]}},{"type":"Feature","properties":{"name":"Newbury Park","network":"tube","lines":"Central"},"geometry":{"type":"Point","coordinates":[0.08994728961898443,51.57570674329742]}},{"type":"Feature","properties":{"name":"Barkingside","network":"tube","lines":"Central"},"geometry":{"type":"Point","coordinates":[0.08865177544643289,51.58570495753583]}},{"type":"Feature","properties":{"name":"Fairlop","network":"tube","lines":"Central"},"geometry":{"type":"Point","coordinates":[0.09107982215310365,51.59555948312765]}},{"type":"Feature","properties":{"name":"Woodford","network":"tube","lines":"Central"},"geometry":{"type":"Point","coordinates":[0.03403824393238041,51.60686242428346]}},{"type":"Feature","properties":{"name":"Roding Valley","network":"tube","lines":"Central"},"geometry":{"type":"Point","coordinates":[0.04373608548952019,51.617080091550285]}},{"type":"Feature","properties":{"name":"Chigwell","network":"tube","lines":"Central"},"geometry":{"type":"Point","coordinates":[0.07562170963079168,51.617654526478276]}},{"type":"Feature","properties":{"name":"Paddington","network":"tube","lines":"Hammersmith & City, District, Circle, Bakerloo"},"geometry":{"type":"Point","coordinates":[-0.17596495802981996,51.516563062742975]}},{"type":"Feature","properties":{"name":"Plaistow","network":"tube","lines":"District, Hammersmith & City"},"geometry":{"type":"Point","coordinates":[0.01701617642166697,51.53123277848176]}},{"type":"Feature","properties":{"name":"Upton Park","network":"tube","lines":"District, Hammersmith & City"},"geometry":{"type":"Point","coordinates":[0.03523731439865021,51.535381142130056]}},{"type":"Feature","properties":{"name":"East Ham","network":"tube","lines":"District, Hammersmith & City"},"geometry":{"type":"Point","coordinates":[0.05285353646947225,51.53940801633755]}},{"type":"Feature","properties":{"name":"Ruislip Gardens","network":"tube","lines":"Central"},"geometry":{"type":"Point","coordinates":[-0.41069610980469773,51.560776885120006]}},{"type":"Feature","properties":{"name":"South Ruislip","network":"tube","lines":"Central"},"geometry":{"type":"Point","coordinates":[-0.3988453286259411,51.55686143301797]}},{"type":"Feature","properties":{"name":"Northolt","network":"tube","lines":"Central"},"geometry":{"type":"Point","coordinates":[-0.3686289374940662,51.54826026165643]}},{"type":"Feature","properties":{"name":"West Ruislip","network":"tube","lines":"Central"},"geometry":{"type":"Point","coordinates":[-0.4376261401625559,51.56963103131005]}},{"type":"Feature","properties":{"name":"Upney","network":"tube","lines":"District"},"geometry":{"type":"Point","coordinates":[0.10158080161648589,51.53835562205369]}},{"type":"Feature","properties":{"name":"Brent Cross","network":"tube","lines":"Northern"},"geometry":{"type":"Point","coordinates":[-0.21375958168302892,51.57667201107082]}},{"type":"Feature","properties":{"name":"Colindale","network":"tube","lines":"Northern"},"geometry":{"type":"Point","coordinates":[-0.24991288789322244,51.59544846315007]}},{"type":"Feature","properties":{"name":"Burnt Oak","network":"tube","lines":"Northern"},"geometry":{"type":"Point","coordinates":[-0.26396943749631124,51.60283685715738]}},{"type":"Feature","properties":{"name":"Mill Hill East","network":"tube","lines":"Northern"},"geometry":{"type":"Point","coordinates":[-0.21003599178200985,51.60823651893993]}},{"type":"Feature","properties":{"name":"Golders Green","network":"tube","lines":"Northern"},"geometry":{"type":"Point","coordinates":[-0.19399730939448828,51.572288905836565]}},{"type":"Feature","properties":{"name":"Finchley Central","network":"tube","lines":"Northern"},"geometry":{"type":"Point","coordinates":[-0.19252922549938975,51.600934867932274]}},{"type":"Feature","properties":{"name":"Sudbury Hill","network":"tube","lines":"Piccadilly"},"geometry":{"type":"Point","coordinates":[-0.3366018139607201,51.55696671602831]}},{"type":"Feature","properties":{"name":"Sudbury Town","network":"tube","lines":"Piccadilly"},"geometry":{"type":"Point","coordinates":[-0.3157234046632659,51.55080728042864]}},{"type":"Feature","properties":{"name":"South Ealing","network":"tube","lines":"Piccadilly"},"geometry":{"type":"Point","coordinates":[-0.30748301640736986,51.50090035756051]}},{"type":"Feature","properties":{"name":"Park Royal","network":"tube","lines":"Piccadilly"},"geometry":{"type":"Point","coordinates":[-0.28394453789510815,51.52648131454105]}},{"type":"Feature","properties":{"name":"Alperton","network":"tube","lines":"Piccadilly"},"geometry":{"type":"Point","coordinates":[-0.299926137316424,51.54073237267457]}},{"type":"Feature","properties":{"name":"Hyde Park Corner","network":"tube","lines":"Piccadilly"},"geometry":{"type":"Point","coordinates":[-0.1541248870615212,51.502752855900624]}},{"type":"Feature","properties":{"name":"Knightsbridge","network":"tube","lines":"Piccadilly"},"geometry":{"type":"Point","coordinates":[-0.16144148605311062,51.50124245200441]}},{"type":"Feature","properties":{"name":"Leicester Square","network":"tube","lines":"Piccadilly, Northern"},"geometry":{"type":"Point","coordinates":[-0.12830674694332442,51.51140618013481]}},{"type":"Feature","properties":{"name":"Covent Garden","network":"tube","lines":"Piccadilly"},"geometry":{"type":"Point","coordinates":[-0.12434154317430521,51.5131460789873]}},{"type":"Feature","properties":{"name":"Russell Square","network":"tube","lines":"Piccadilly"},"geometry":{"type":"Point","coordinates":[-0.12424410584118228,51.5230609966915]}},{"type":"Feature","properties":{"name":"Holloway Road","network":"tube","lines":"Piccadilly"},"geometry":{"type":"Point","coordinates":[-0.11323721512364915,51.552758210385385]}},{"type":"Feature","properties":{"name":"Arsenal","network":"tube","lines":"Piccadilly"},"geometry":{"type":"Point","coordinates":[-0.1072589952203458,51.55861826306519]}},{"type":"Feature","properties":{"name":"Arnos Grove","network":"tube","lines":"Piccadilly"},"geometry":{"type":"Point","coordinates":[-0.13301968310150333,51.616455215324805]}},{"type":"Feature","properties":{"name":"Southgate","network":"tube","lines":"Piccadilly"},"geometry":{"type":"Point","coordinates":[-0.1277363822061678,51.6322612488299]}},{"type":"Feature","properties":{"name":"Cockfosters","network":"tube","lines":"Piccadilly"},"geometry":{"type":"Point","coordinates":[-0.14913710961306262,51.65153153782295]}},{"type":"Feature","properties":{"name":"Oakwood","network":"tube","lines":"Piccadilly"},"geometry":{"type":"Point","coordinates":[-0.1312425938088052,51.647336423445864]}},{"type":"Feature","properties":{"name":"Manor House","network":"tube","lines":"Piccadilly"},"geometry":{"type":"Point","coordinates":[-0.09603896233424644,51.570753585373225]}},{"type":"Feature","properties":{"name":"Temple","network":"tube","lines":"District, Circle"},"geometry":{"type":"Point","coordinates":[-0.11422612279638088,51.51098594514859]}},{"type":"Feature","properties":{"name":"Blackfriars","network":"tube","lines":"District, Circle"},"geometry":{"type":"Point","coordinates":[-0.10360388318767122,51.5116263548801]}},{"type":"Feature","properties":{"name":"Mansion House","network":"tube","lines":"District, Circle"},"geometry":{"type":"Point","coordinates":[-0.09407988533306881,51.51181798045325]}},{"type":"Feature","properties":{"name":"Cannon Street","network":"tube","lines":"District, Circle"},"geometry":{"type":"Point","coordinates":[-0.09038596131006844,51.51147462980818]}},{"type":"Feature","properties":{"name":"Tower Hill","network":"tube","lines":"District, Circle"},"geometry":{"type":"Point","coordinates":[-0.07650008532485458,51.50994652128413]}},{"type":"Feature","properties":{"name":"Aldgate","network":"tube","lines":"Metropolitan, Circle"},"geometry":{"type":"Point","coordinates":[-0.07582266781596907,51.51449389917067]}},{"type":"Feature","properties":{"name":"Liverpool Street","network":"tube","lines":"Metropolitan, Central, Circle, Hammersmith & City"},"geometry":{"type":"Point","coordinates":[-0.08318710333226773,51.51735397861752]}},{"type":"Feature","properties":{"name":"Moorgate","network":"tube","lines":"Metropolitan, Northern, Circle, Hammersmith & City"},"geometry":{"type":"Point","coordinates":[-0.08928542058767058,51.51836473412566]}},{"type":"Feature","properties":{"name":"Barbican","network":"tube","lines":"Metropolitan, Circle, Hammersmith & City"},"geometry":{"type":"Point","coordinates":[-0.09877397919468621,51.52021038443976]}},{"type":"Feature","properties":{"name":"Farringdon","network":"tube","lines":"Metropolitan, Circle, Hammersmith & City"},"geometry":{"type":"Point","coordinates":[-0.10516609825748469,51.52047207835791]}},{"type":"Feature","properties":{"name":"King's Cross St. Pancras","network":"tube","lines":"Metropolitan, Northern, Piccadilly, Circle, Victoria, Hammersmith & City"},"geometry":{"type":"Point","coordinates":[-0.12475034418548768,51.529787127414046]}},{"type":"Feature","properties":{"name":"Euston Square","network":"tube","lines":"Metropolitan, Circle, Hammersmith & City"},"geometry":{"type":"Point","coordinates":[-0.13585131277600235,51.52563499227435]}},{"type":"Feature","properties":{"name":"Baker Street","network":"tube","lines":"Metropolitan, Bakerloo, Circle, Jubilee, Hammersmith & City"},"geometry":{"type":"Point","coordinates":[-0.15703298030019838,51.52300374632299]}},{"type":"Feature","properties":{"name":"Edgware Road (Circle Line)","network":"tube","lines":"Circle"},"geometry":{"type":"Point","coordinates":[-0.16774822753637592,51.51987411321597]}},{"type":"Feature","properties":{"name":"Bayswater","network":"tube","lines":"District, Circle"},"geometry":{"type":"Point","coordinates":[-0.18789807238512346,51.512325419753445]}},{"type":"Feature","properties":{"name":"High Street Kensington","network":"tube","lines":"District, Circle"},"geometry":{"type":"Point","coordinates":[-0.19218197924304783,51.500446308904195]}},{"type":"Feature","properties":{"name":"Gloucester Road","network":"tube","lines":"District, Piccadilly, Circle"},"geometry":{"type":"Point","coordinates":[-0.18371055669604047,51.49448973269031]}},{"type":"Feature","properties":{"name":"South Kensington","network":"tube","lines":"District, Piccadilly, Circle"},"geometry":{"type":"Point","coordinates":[-0.17314074469498192,51.49408968638455]}},{"type":"Feature","properties":{"name":"Chiswick Park","network":"tube","lines":"District"},"geometry":{"type":"Point","coordinates":[-0.26854880833145983,51.49466828899162]}},{"type":"Feature","properties":{"name":"Wimbledon Park","network":"tube","lines":"District"},"geometry":{"type":"Point","coordinates":[-0.1990618962853758,51.43405492807986]}},{"type":"Feature","properties":{"name":"East Putney","network":"tube","lines":"District"},"geometry":{"type":"Point","coordinates":[-0.21103973778595045,51.459149858838394]}},{"type":"Feature","properties":{"name":"West Kensington","network":"tube","lines":"District"},"geometry":{"type":"Point","coordinates":[-0.20543328563936397,51.490791545430085]}},{"type":"Feature","properties":{"name":"Parsons Green","network":"tube","lines":"District"},"geometry":{"type":"Point","coordinates":[-0.20173953648514995,51.47498609870557]}},{"type":"Feature","properties":{"name":"White City","network":"tube","lines":"Central"},"geometry":{"type":"Point","coordinates":[-0.22443828436471863,51.512216673623726]}},{"type":"Feature","properties":{"name":"Shepherd's Bush","network":"tube","lines":"Central"},"geometry":{"type":"Point","coordinates":[-0.21881108542577388,51.50435403208944]}},{"type":"Feature","properties":{"name":"Holland Park","network":"tube","lines":"Central"},"geometry":{"type":"Point","coordinates":[-0.20563639753960208,51.50715491239516]}},{"type":"Feature","properties":{"name":"Becontree","network":"tube","lines":"District"},"geometry":{"type":"Point","coordinates":[0.12736913299923724,51.54034563081989]}},{"type":"Feature","properties":{"name":"Victoria","network":"tube","lines":"District, Circle, Victoria"},"geometry":{"type":"Point","coordinates":[-0.14306445018880992,51.49640216007643]}},{"type":"Feature","properties":{"name":"Brixton","network":"tube","lines":"Victoria"},"geometry":{"type":"Point","coordinates":[-0.11486917355795694,51.462667783964164]}},{"type":"Feature","properties":{"name":"Pimlico","network":"tube","lines":"Victoria"},"geometry":{"type":"Point","coordinates":[-0.13368379204409916,51.48908302630204]}},{"type":"Feature","properties":{"name":"Vauxhall","network":"tube","lines":"Victoria"},"geometry":{"type":"Point","coordinates":[-0.1242270367385119,51.485698449390874]}},{"type":"Feature","properties":{"name":"Warren Street","network":"tube","lines":"Northern, Victoria"},"geometry":{"type":"Point","coordinates":[-0.13831627552976922,51.52452893073666]}},{"type":"Feature","properties":{"name":"Dagenham East","network":"tube","lines":"District"},"geometry":{"type":"Point","coordinates":[0.16600396264986209,51.54416177060668]}},{"type":"Feature","properties":{"name":"Elm Park","network":"tube","lines":"District"},"geometry":{"type":"Point","coordinates":[0.19869395659170136,51.549721479820754]}},{"type":"Feature","properties":{"name":"Hornchurch","network":"tube","lines":"District"},"geometry":{"type":"Point","coordinates":[0.21913403605835513,51.55405051460794]}},{"type":"Feature","properties":{"name":"Upminster Bridge","network":"tube","lines":"District"},"geometry":{"type":"Point","coordinates":[0.23585385101043682,51.55849762901839]}},{"type":"Feature","properties":{"name":"Shepherd's Bush Market","network":"tube","lines":"Hammersmith & City, Circle"},"geometry":{"type":"Point","coordinates":[-0.22627223916186662,51.506091811563294]}},{"type":"Feature","properties":{"name":"Goldhawk Road","network":"tube","lines":"Hammersmith & City, Circle"},"geometry":{"type":"Point","coordinates":[-0.22662127650250785,51.50199297475098]}},{"type":"Feature","properties":{"name":"Latimer Road","network":"tube","lines":"Hammersmith & City, Circle"},"geometry":{"type":"Point","coordinates":[-0.21782991407451024,51.513460126230264]}},{"type":"Feature","properties":{"name":"Ladbroke Grove","network":"tube","lines":"Hammersmith & City, Circle"},"geometry":{"type":"Point","coordinates":[-0.2108776442066751,51.517322093498045]}},{"type":"Feature","properties":{"name":"Royal Oak","network":"tube","lines":"Hammersmith & City, Circle"},"geometry":{"type":"Point","coordinates":[-0.18776167185686643,51.519049749258826]}},{"type":"Feature","properties":{"name":"Earl's Court","network":"tube","lines":"District, Piccadilly"},"geometry":{"type":"Point","coordinates":[-0.19315147758902873,51.49198557682368]}},{"type":"Feature","properties":{"name":"Queen's Park","network":"tube","lines":"Bakerloo"},"geometry":{"type":"Point","coordinates":[-0.20571692956544158,51.53398013514483]}},{"type":"Feature","properties":{"name":"Notting Hill Gate","network":"tube","lines":"District, Central, Circle"},"geometry":{"type":"Point","coordinates":[-0.19606572325076463,51.509157406681176]}},{"type":"Feature","properties":{"name":"Lancaster Gate","network":"tube","lines":"Central"},"geometry":{"type":"Point","coordinates":[-0.17542046668694783,51.51168867068523]}},{"type":"Feature","properties":{"name":"Marble Arch","network":"tube","lines":"Central"},"geometry":{"type":"Point","coordinates":[-0.15733402294223844,51.513601298245554]}},{"type":"Feature","properties":{"name":"Bond Street","network":"tube","lines":"Central, Jubilee"},"geometry":{"type":"Point","coordinates":[-0.14965603384742796,51.51438114257498]}},{"type":"Feature","properties":{"name":"Perivale","network":"tube","lines":"Central"},"geometry":{"type":"Point","coordinates":[-0.3234022307360061,51.53675203969547]}},{"type":"Feature","properties":{"name":"Greenford","network":"tube","lines":"Central"},"geometry":{"type":"Point","coordinates":[-0.34648162728067283,51.54259236801571]}},{"type":"Feature","properties":{"name":"North Acton","network":"tube","lines":"Central"},"geometry":{"type":"Point","coordinates":[-0.25973673728588725,51.5236132092944]}},{"type":"Feature","properties":{"name":"Putney Bridge","network":"tube","lines":"District"},"geometry":{"type":"Point","coordinates":[-0.2087031194353111,51.468256004357535]}},{"type":"Feature","properties":{"name":"Bank","network":"tube","lines":"Waterloo & City, Northern, Central"},"geometry":{"type":"Point","coordinates":[-0.08888206509684098,51.51342702694792]}},{"type":"Feature","properties":{"name":"Oxford Circus","network":"tube","lines":"Central, Bakerloo, Victoria"},"geometry":{"type":"Point","coordinates":[-0.1416051998431463,51.51532131761065]}},{"type":"Feature","properties":{"name":"Holborn","network":"tube","lines":"Central, Piccadilly"},"geometry":{"type":"Point","coordinates":[-0.12039078891506737,51.51757982006957]}},{"type":"Feature","properties":{"name":"Chancery Lane","network":"tube","lines":"Central"},"geometry":{"type":"Point","coordinates":[-0.11154353768138751,51.5182506335764]}},{"type":"Feature","properties":{"name":"Canada Water","network":"tube","lines":"Jubilee"},"geometry":{"type":"Point","coordinates":[-0.04996079141194044,51.4979220145116]}},{"type":"Feature","properties":{"name":"Bermondsey","network":"tube","lines":"Jubilee"},"geometry":{"type":"Point","coordinates":[-0.06433303647637742,51.497703512063474]}},{"type":"Feature","properties":{"name":"Canary Wharf","network":"tube","lines":"Jubilee"},"geometry":{"type":"Point","coordinates":[-0.01772666474327274,51.50343101270412]}},{"type":"Feature","properties":{"name":"North Greenwich","network":"tube","lines":"Jubilee"},"geometry":{"type":"Point","coordinates":[0.004314429744857363,51.50053496113465]}},{"type":"Feature","properties":{"name":"Canning Town","network":"tube","lines":"Jubilee"},"geometry":{"type":"Point","coordinates":[0.007974158419872781,51.51412287657664]}},{"type":"Feature","properties":{"name":"Kilburn","network":"tube","lines":"Jubilee"},"geometry":{"type":"Point","coordinates":[-0.2046899217201159,51.54695523900184]}},{"type":"Feature","properties":{"name":"West Hampstead","network":"tube","lines":"Jubilee"},"geometry":{"type":"Point","coordinates":[-0.1901444374943661,51.54680413429183]}},{"type":"Feature","properties":{"name":"Swiss Cottage","network":"tube","lines":"Jubilee"},"geometry":{"type":"Point","coordinates":[-0.1748144972474584,51.543707600813704]}},{"type":"Feature","properties":{"name":"Finchley Road","network":"tube","lines":"Metropolitan, Jubilee"},"geometry":{"type":"Point","coordinates":[-0.1810662378524785,51.547233075573345]}},{"type":"Feature","properties":{"name":"Colliers Wood","network":"tube","lines":"Northern"},"geometry":{"type":"Point","coordinates":[-0.17803291109711097,51.41815910665567]}},{"type":"Feature","properties":{"name":"Archway","network":"tube","lines":"Northern"},"geometry":{"type":"Point","coordinates":[-0.1350259780700873,51.56454088262339]}},{"type":"Feature","properties":{"name":"Tooting Broadway","network":"tube","lines":"Northern"},"geometry":{"type":"Point","coordinates":[-0.16836453629051962,51.42767575518045]}},{"type":"Feature","properties":{"name":"Tooting Bec","network":"tube","lines":"Northern"},"geometry":{"type":"Point","coordinates":[-0.1592081295463098,51.43589937002341]}},{"type":"Feature","properties":{"name":"Clapham South","network":"tube","lines":"Northern"},"geometry":{"type":"Point","coordinates":[-0.14718683264055843,51.45323752858684]}},{"type":"Feature","properties":{"name":"Clapham Common","network":"tube","lines":"Northern"},"geometry":{"type":"Point","coordinates":[-0.13716700978471597,51.462211233552125]}},{"type":"Feature","properties":{"name":"Clapham North","network":"tube","lines":"Northern"},"geometry":{"type":"Point","coordinates":[-0.12933340354179307,51.465730368079804]}},{"type":"Feature","properties":{"name":"Goodge Street","network":"tube","lines":"Northern"},"geometry":{"type":"Point","coordinates":[-0.1343174180032952,51.520603564610724]}},{"type":"Feature","properties":{"name":"Tottenham Court Road","network":"tube","lines":"Central, Northern"},"geometry":{"type":"Point","coordinates":[-0.1304784162451525,51.516458879984725]}},{"type":"Feature","properties":{"name":"Hampstead","network":"tube","lines":"Northern"},"geometry":{"type":"Point","coordinates":[-0.178497747443859,51.55659227653807]}},{"type":"Feature","properties":{"name":"Mornington Crescent","network":"tube","lines":"Northern"},"geometry":{"type":"Point","coordinates":[-0.13872411823190028,51.53470700269885]}},{"type":"Feature","properties":{"name":"Chalk Farm","network":"tube","lines":"Northern"},"geometry":{"type":"Point","coordinates":[-0.1526164925965337,51.54386060209428]}},{"type":"Feature","properties":{"name":"Kentish Town","network":"tube","lines":"Northern"},"geometry":{"type":"Point","coordinates":[-0.14072202813760962,51.5502963315101]}},{"type":"Feature","properties":{"name":"Tufnell Park","network":"tube","lines":"Northern"},"geometry":{"type":"Point","coordinates":[-0.13843964784622012,51.556846906210104]}},{"type":"Feature","properties":{"name":"Oval","network":"tube","lines":"Northern"},"geometry":{"type":"Point","coordinates":[-0.11238089188008163,51.48183842883546]}},{"type":"Feature","properties":{"name":"Kennington","network":"tube","lines":"Northern"},"geometry":{"type":"Point","coordinates":[-0.10594002954213064,51.488341112167014]}},{"type":"Feature","properties":{"name":"East Acton","network":"tube","lines":"Central"},"geometry":{"type":"Point","coordinates":[-0.2471390596443958,51.51659882902005]}},{"type":"Feature","properties":{"name":"Chalfont & Latimer","network":"tube","lines":"Metropolitan"},"geometry":{"type":"Point","coordinates":[-0.5607012319200614,51.66803547667429]}},{"type":"Feature","properties":{"name":"Chorleywood","network":"tube","lines":"Metropolitan"},"geometry":{"type":"Point","coordinates":[-0.5185313126087564,51.654297659682854]}},{"type":"Feature","properties":{"name":"Wood Lane","network":"tube","lines":"Hammersmith & City, Circle"},"geometry":{"type":"Point","coordinates":[-0.22356600396084098,51.51014200950084]}},{"type":"Feature","properties":{"name":"Highbury & Islington","network":"tube","lines":"Victoria"},"geometry":{"type":"Point","coordinates":[-0.10371031181067751,51.547426643678996]}},{"type":"Feature","properties":{"name":"Blackhorse Road","network":"tube","lines":"Victoria"},"geometry":{"type":"Point","coordinates":[-0.041767975411358904,51.58684231634473]}},{"type":"Feature","properties":{"name":"Tottenham Hale","network":"tube","lines":"Victoria"},"geometry":{"type":"Point","coordinates":[-0.06013941417169768,51.588050475968885]}},{"type":"Feature","properties":{"name":"Queensway","network":"tube","lines":"Central"},"geometry":{"type":"Point","coordinates":[-0.18711388170553853,51.510253605237914]}},{"type":"Feature","properties":{"name":"Buckhurst Hill","network":"tube","lines":"Central"},"geometry":{"type":"Point","coordinates":[0.046850474676383466,51.625984536128485]}},{"type":"Feature","properties":{"name":"Loughton","network":"tube","lines":"Central"},"geometry":{"type":"Point","coordinates":[0.05536459244841853,51.64131403988052]}},{"type":"Feature","properties":{"name":"Hainault","network":"tube","lines":"Central"},"geometry":{"type":"Point","coordinates":[0.0935350467670536,51.603641740942656]}},{"type":"Feature","properties":{"name":"Grange Hill","network":"tube","lines":"Central"},"geometry":{"type":"Point","coordinates":[0.09234874395344446,51.61319986499311]}},{"type":"Feature","properties":{"name":"Debden","network":"tube","lines":"Central"},"geometry":{"type":"Point","coordinates":[0.08379352986759464,51.645394091676984]}},{"type":"Feature","properties":{"name":"Epping","network":"tube","lines":"Central"},"geometry":{"type":"Point","coordinates":[0.11402584492275072,51.693565206495194]}},{"type":"Feature","properties":{"name":"Redbridge","network":"tube","lines":"Central"},"geometry":{"type":"Point","coordinates":[0.04543683733395161,51.57625103671674]}},{"type":"Feature","properties":{"name":"Dollis Hill","network":"tube","lines":"Jubilee"},"geometry":{"type":"Point","coordinates":[-0.23901620575593396,51.55196421785429]}},{"type":"Feature","properties":{"name":"Kingsbury","network":"tube","lines":"Jubilee"},"geometry":{"type":"Point","coordinates":[-0.2786208040992663,51.58464327626281]}},{"type":"Feature","properties":{"name":"Queensbury","network":"tube","lines":"Jubilee"},"geometry":{"type":"Point","coordinates":[-0.2861980031288324,51.59419960096339]}},{"type":"Feature","properties":{"name":"South Kenton","network":"tube","lines":"Bakerloo"},"geometry":{"type":"Point","coordinates":[-0.3083509448440916,51.57021498194731]}},{"type":"Feature","properties":{"name":"Harrow & Wealdstone","network":"tube","lines":"Bakerloo"},"geometry":{"type":"Point","coordinates":[-0.33486378138993794,51.59204593104834]}},{"type":"Feature","properties":{"name":"Stonebridge Park","network":"tube","lines":"Bakerloo"},"geometry":{"type":"Point","coordinates":[-0.27644334123483766,51.54419436745578]}},{"type":"Feature","properties":{"name":"Embankment","network":"tube","lines":"District, Bakerloo, Northern, Circle"},"geometry":{"type":"Point","coordinates":[-0.12214413170980468,51.50745329894227]}},{"type":"Feature","properties":{"name":"South Harrow","network":"tube","lines":"Piccadilly"},"geometry":{"type":"Point","coordinates":[-0.35207104765585534,51.564550941317485]}},{"type":"Feature","properties":{"name":"Kensal Green","network":"tube","lines":"Bakerloo"},"geometry":{"type":"Point","coordinates":[-0.22445445755684557,51.53057360541605]}},{"type":"Feature","properties":{"name":"Harlesden","network":"tube","lines":"Bakerloo"},"geometry":{"type":"Point","coordinates":[-0.2585665313716957,51.53670021092851]}},{"type":"Feature","properties":{"name":"Wembley Central","network":"tube","lines":"Bakerloo"},"geometry":{"type":"Point","coordinates":[-0.2968032315663595,51.55228332910327]}},{"type":"Feature","properties":{"name":"North Wembley","network":"tube","lines":"Bakerloo"},"geometry":{"type":"Point","coordinates":[-0.3038599094320078,51.562395726373744]}},{"type":"Feature","properties":{"name":"Paddington (H&C Line)","network":"tube","lines":"Hammersmith & City"},"geometry":{"type":"Point","coordinates":[-0.17877253050992725,51.51851489408717]}},{"type":"Feature","properties":{"name":"Kew Gardens","network":"tube","lines":"District"},"geometry":{"type":"Point","coordinates":[-0.28501836834117616,51.47699785427727]}},{"type":"Feature","properties":{"name":"Gunnersbury","network":"tube","lines":"District"},"geometry":{"type":"Point","coordinates":[-0.275113608793886,51.49174261326312]}},{"type":"Feature","properties":{"name":"Piccadilly Circus","network":"tube","lines":"Bakerloo, Piccadilly"},"geometry":{"type":"Point","coordinates":[-0.13366211152203727,51.51006209866332]}},{"type":"Feature","properties":{"name":"Charing Cross","network":"tube","lines":"Bakerloo, Northern"},"geometry":{"type":"Point","coordinates":[-0.12735836557883445,51.50737938415528]}},{"type":"Feature","properties":{"name":"Elephant & Castle","network":"tube","lines":"Northern, Bakerloo"},"geometry":{"type":"Point","coordinates":[-0.10116077042767899,51.495838691742556]}},{"type":"Feature","properties":{"name":"Lambeth North","network":"tube","lines":"Bakerloo"},"geometry":{"type":"Point","coordinates":[-0.11220738537156373,51.498843497400856]}},{"type":"Feature","properties":{"name":"Edgware Road (Bakerloo)","network":"tube","lines":"Bakerloo"},"geometry":{"type":"Point","coordinates":[-0.17022320543869923,51.52047087330281]}},{"type":"Feature","properties":{"name":"Maida Vale","network":"tube","lines":"Bakerloo"},"geometry":{"type":"Point","coordinates":[-0.1858044595989153,51.52973093871485]}},{"type":"Feature","properties":{"name":"Kilburn Park","network":"tube","lines":"Bakerloo"},"geometry":{"type":"Point","coordinates":[-0.1939954582513979,51.534949502719336]}},{"type":"Feature","properties":{"name":"Marylebone","network":"tube","lines":"Bakerloo"},"geometry":{"type":"Point","coordinates":[-0.16421522044677608,51.52216062272009]}},{"type":"Feature","properties":{"name":"Regent's Park","network":"tube","lines":"Bakerloo"},"geometry":{"type":"Point","coordinates":[-0.14628777047526836,51.52328014887866]}},{"type":"Feature","properties":{"name":"Sloane Square","network":"tube","lines":"District, Circle"},"geometry":{"type":"Point","coordinates":[-0.15631078955829655,51.49233801708835]}},{"type":"Feature","properties":{"name":"Ravenscourt Park","network":"tube","lines":"District"},"geometry":{"type":"Point","coordinates":[-0.23575209459831525,51.494168715359244]}},{"type":"Feature","properties":{"name":"Hammersmith (Dist&Picc Line)","network":"tube","lines":"District, Piccadilly"},"geometry":{"type":"Point","coordinates":[-0.22301844693557082,51.49200049805205]}},{"type":"Feature","properties":{"name":"Belsize Park","network":"tube","lines":"Northern"},"geometry":{"type":"Point","coordinates":[-0.16459540148160912,51.55032804911082]}},{"type":"Feature","properties":{"name":"Wood Green","network":"tube","lines":"Piccadilly"},"geometry":{"type":"Point","coordinates":[-0.10983368226847881,51.59747405266888]}},{"type":"Feature","properties":{"name":"Bounds Green","network":"tube","lines":"Piccadilly"},"geometry":{"type":"Point","coordinates":[-0.12431672179680112,51.607066509103646]}},{"type":"Feature","properties":{"name":"Westminster","network":"tube","lines":"District, Circle, Jubilee"},"geometry":{"type":"Point","coordinates":[-0.12563344774965532,51.50096559115879]}},{"type":"Feature","properties":{"name":"Kensington (Olympia)","network":"tube","lines":"District"},"geometry":{"type":"Point","coordinates":[-0.21010619056284152,51.49773661724019]}},{"type":"Feature","properties":{"name":"Euston","network":"tube","lines":"Northern, Victoria"},"geometry":{"type":"Point","coordinates":[-0.13457298697935619,51.528086488029224]}},{"type":"Feature","properties":{"name":"Waterloo","network":"tube","lines":"Waterloo & City, Bakerloo, Northern, Jubilee"},"geometry":{"type":"Point","coordinates":[-0.11440119744896528,51.50342662279962]}},{"type":"Feature","properties":{"name":"Upminster","network":"tube","lines":"District"},"geometry":{"type":"Point","coordinates":[0.25114311988747445,51.559089312980674]}},{"type":"Feature","properties":{"name":"West Ham","network":"tube","lines":"District, Hammersmith & City, Jubilee"},"geometry":{"type":"Point","coordinates":[0.004310365571870992,51.52828082491252]}},{"type":"Feature","properties":{"name":"Walthamstow Central","network":"tube","lines":"Victoria"},"geometry":{"type":"Point","coordinates":[-0.021489893196447257,51.583121495480725]}},{"type":"Feature","properties":{"name":"Ealing Broadway","network":"tube","lines":"District, Central"},"geometry":{"type":"Point","coordinates":[-0.30098295101684786,51.51500553219244]}},{"type":"Feature","properties":{"name":"Acton Town","network":"tube","lines":"District, Piccadilly"},"geometry":{"type":"Point","coordinates":[-0.27999910460551614,51.502646450286825]}},{"type":"Feature","properties":{"name":"Ealing Common","network":"tube","lines":"District, Piccadilly"},"geometry":{"type":"Point","coordinates":[-0.2881211267596775,51.509544241835414]}},{"type":"Feature","properties":{"name":"Green Park","network":"tube","lines":"Piccadilly, Victoria, Jubilee"},"geometry":{"type":"Point","coordinates":[-0.14251682918547087,51.50686910455592]}},{"type":"Feature","properties":{"name":"Finsbury Park","network":"tube","lines":"Piccadilly, Victoria"},"geometry":{"type":"Point","coordinates":[-0.10665323027694648,51.56457268113842]}},{"type":"Feature","properties":{"name":"Stockwell","network":"tube","lines":"Northern, Victoria"},"geometry":{"type":"Point","coordinates":[-0.12301670611173983,51.47182930630758]}},{"type":"Feature","properties":{"name":"Morden","network":"tube","lines":"Northern"},"geometry":{"type":"Point","coordinates":[-0.1947300760046831,51.402537273365134]}},{"type":"Feature","properties":{"name":"Hammersmith (H&C Line)","network":"tube","lines":"Hammersmith & City"},"geometry":{"type":"Point","coordinates":[-0.2249059172755283,51.49378500449172]}},{"type":"Feature","properties":{"name":"Hatton Cross","network":"tube","lines":"Piccadilly"},"geometry":{"type":"Point","coordinates":[-0.42344349617218374,51.46662782637504]}},{"type":"Feature","properties":{"name":"Hounslow West","network":"tube","lines":"Piccadilly"},"geometry":{"type":"Point","coordinates":[-0.3857727888566478,51.47361874525992]}},{"type":"Feature","properties":{"name":"Hounslow Central","network":"tube","lines":"Piccadilly"},"geometry":{"type":"Point","coordinates":[-0.3662725904993857,51.47131967859835]}},{"type":"Feature","properties":{"name":"Hounslow East","network":"tube","lines":"Piccadilly"},"geometry":{"type":"Point","coordinates":[-0.3563130337264479,51.47326279794184]}},{"type":"Feature","properties":{"name":"Osterley","network":"tube","lines":"Piccadilly"},"geometry":{"type":"Point","coordinates":[-0.35219930998019927,51.48124351347351]}},{"type":"Feature","properties":{"name":"Northfields","network":"tube","lines":"Piccadilly"},"geometry":{"type":"Point","coordinates":[-0.312972772078149,51.49965532916477]}},{"type":"Feature","properties":{"name":"Barons Court","network":"tube","lines":"District, Piccadilly"},"geometry":{"type":"Point","coordinates":[-0.21466048806723906,51.490299337442444]}},{"type":"Feature","properties":{"name":"Fulham Broadway","network":"tube","lines":"District"},"geometry":{"type":"Point","coordinates":[-0.1947424821720334,51.480768615439324]}},{"type":"Feature","properties":{"name":"West Brompton","network":"tube","lines":"District"},"geometry":{"type":"Point","coordinates":[-0.1955478930720884,51.48728050475925]}},{"type":"Feature","properties":{"name":"Stamford Brook","network":"tube","lines":"District"},"geometry":{"type":"Point","coordinates":[-0.24597813551448625,51.49491903854232]}},{"type":"Feature","properties":{"name":"Turnham Green","network":"tube","lines":"District, Piccadilly"},"geometry":{"type":"Point","coordinates":[-0.25452738857504603,51.49495871653023]}},{"type":"Feature","properties":{"name":"Aldgate East","network":"tube","lines":"Hammersmith & City, District"},"geometry":{"type":"Point","coordinates":[-0.0711272239163643,51.5154283167147]}},{"type":"Feature","properties":{"name":"Whitechapel","network":"tube","lines":"District, Hammersmith & City"},"geometry":{"type":"Point","coordinates":[-0.06074199576063847,51.51953341729381]}},{"type":"Feature","properties":{"name":"Bow Road","network":"tube","lines":"District, Hammersmith & City"},"geometry":{"type":"Point","coordinates":[-0.025175687286684078,51.5269041227919]}},{"type":"Feature","properties":{"name":"Wembley Park","network":"tube","lines":"Metropolitan, Jubilee"},"geometry":{"type":"Point","coordinates":[-0.28002666859419345,51.56376288899373]}},{"type":"Feature","properties":{"name":"Neasden","network":"tube","lines":"Jubilee"},"geometry":{"type":"Point","coordinates":[-0.25114661724898746,51.55442859771553]}},{"type":"Feature","properties":{"name":"Totteridge & Whetstone","network":"tube","lines":"Northern"},"geometry":{"type":"Point","coordinates":[-0.17917994772709606,51.63059067645157]}},{"type":"Feature","properties":{"name":"Heathrow Terminal 4","network":"tube","lines":"Piccadilly"},"geometry":{"type":"Point","coordinates":[-0.4456932698740283,51.45854054108181]}},{"type":"Feature","properties":{"name":"West Acton","network":"tube","lines":"Central"},"geometry":{"type":"Point","coordinates":[-0.2809309815438483,51.51798139575275]}},{"type":"Feature","properties":{"name":"Stratford","network":"tube","lines":"Central, Jubilee"},"geometry":{"type":"Point","coordinates":[-0.0037767724580580835,51.54145824592415]}},{"type":"Feature","properties":{"name":"Uxbridge","network":"tube","lines":"Metropolitan, Piccadilly"},"geometry":{"type":"Point","coordinates":[-0.4776138506362097,51.54646401662398]}},{"type":"Feature","properties":{"name":"Hillingdon","network":"tube","lines":"Metropolitan, Piccadilly"},"geometry":{"type":"Point","coordinates":[-0.44936306618841204,51.55395095044708]}},{"type":"Feature","properties":{"name":"Ickenham","network":"tube","lines":"Metropolitan, Piccadilly"},"geometry":{"type":"Point","coordinates":[-0.4420192169329209,51.56197066443226]}},{"type":"Feature","properties":{"name":"Ruislip","network":"tube","lines":"Metropolitan, Piccadilly"},"geometry":{"type":"Point","coordinates":[-0.4217697653011829,51.571293449854245]}},{"type":"Feature","properties":{"name":"Ruislip Manor","network":"tube","lines":"Metropolitan, Piccadilly"},"geometry":{"type":"Point","coordinates":[-0.4117914915031347,51.573477882519704]}},{"type":"Feature","properties":{"name":"Northwood Hills","network":"tube","lines":"Metropolitan"},"geometry":{"type":"Point","coordinates":[-0.4087249562088543,51.60019515783439]}},{"type":"Feature","properties":{"name":"West Harrow","network":"tube","lines":"Metropolitan"},"geometry":{"type":"Point","coordinates":[-0.3532682356420681,51.57956837421787]}},{"type":"Feature","properties":{"name":"Rayners Lane","network":"tube","lines":"Metropolitan, Piccadilly"},"geometry":{"type":"Point","coordinates":[-0.371424615779741,51.57519707666048]}},{"type":"Feature","properties":{"name":"North Harrow","network":"tube","lines":"Metropolitan"},"geometry":{"type":"Point","coordinates":[-0.36258272157955407,51.58494914813839]}},{"type":"Feature","properties":{"name":"Pinner","network":"tube","lines":"Metropolitan"},"geometry":{"type":"Point","coordinates":[-0.38114014508580724,51.59282808885137]}},{"type":"Feature","properties":{"name":"Harrow-on-the-Hill","network":"tube","lines":"Metropolitan"},"geometry":{"type":"Point","coordinates":[-0.3367298957021292,51.57941631719419]}},{"type":"Feature","properties":{"name":"Northwick Park","network":"tube","lines":"Metropolitan"},"geometry":{"type":"Point","coordinates":[-0.3180437720128923,51.57847689938422]}},{"type":"Feature","properties":{"name":"Stanmore","network":"tube","lines":"Jubilee"},"geometry":{"type":"Point","coordinates":[-0.30323865564525887,51.61971384631655]}},{"type":"Feature","properties":{"name":"Canons Park","network":"tube","lines":"Jubilee"},"geometry":{"type":"Point","coordinates":[-0.29467049945755214,51.60771146078512]}},{"type":"Feature","properties":{"name":"St. John's Wood","network":"tube","lines":"Jubilee"},"geometry":{"type":"Point","coordinates":[-0.17412239868412321,51.53520695732206]}},{"type":"Feature","properties":{"name":"Southwark","network":"tube","lines":"Jubilee"},"geometry":{"type":"Point","coordinates":[-0.10537174281666047,51.504288981458906]}},{"type":"Feature","properties":{"name":"London Bridge","network":"tube","lines":"Northern, Jubilee"},"geometry":{"type":"Point","coordinates":[-0.08962267402600414,51.50506644378013]}},{"type":"Feature","properties":{"name":"Wimbledon","network":"tube","lines":"District"},"geometry":{"type":"Point","coordinates":[-0.20649054663582903,51.42143428159607]}},{"type":"Feature","properties":{"name":"West Finchley","network":"tube","lines":"Northern"},"geometry":{"type":"Point","coordinates":[-0.18831720666713334,51.60948996740851]}},{"type":"Feature","properties":{"name":"Battersea Power Station","network":"tube","lines":"Northern"},"geometry":{"type":"Point","coordinates":[-0.14337592387697987,51.47947684444602]}},{"type":"Feature","properties":{"name":"Nine Elms","network":"tube","lines":"Northern"},"geometry":{"type":"Point","coordinates":[-0.12946017738486698,51.480140249560634]}},{"type":"Feature","properties":{"name":"Edgware","network":"tube","lines":"Northern"},"geometry":{"type":"Point","coordinates":[-0.27475444283655587,51.61361074766302]}},{"type":"Feature","properties":{"name":"North Ealing","network":"tube","lines":"Piccadilly"},"geometry":{"type":"Point","coordinates":[-0.2888023382016314,51.51748341808962]}},{"type":"Feature","properties":{"name":"Caledonian Road","network":"tube","lines":"Piccadilly"},"geometry":{"type":"Point","coordinates":[-0.11844728460722587,51.548525982821566]}},{"type":"Feature","properties":{"name":"Monument","network":"tube","lines":"District, Circle"},"geometry":{"type":"Point","coordinates":[-0.08608762209059857,51.510721208870365]}},{"type":"Feature","properties":{"name":"Great Portland Street","network":"tube","lines":"Metropolitan, Circle, Hammersmith & City"},"geometry":{"type":"Point","coordinates":[-0.14426557419480315,51.52384823665691]}},{"type":"Feature","properties":{"name":"Southfields","network":"tube","lines":"District"},"geometry":{"type":"Point","coordinates":[-0.20662930369306398,51.4450797805852]}},{"type":"Feature","properties":{"name":"Dagenham Heathway","network":"tube","lines":"District"},"geometry":{"type":"Point","coordinates":[0.14754682024848625,51.541618480418705]}},{"type":"Feature","properties":{"name":"Heathrow Terminals 1-2-3","network":"tube","lines":"Piccadilly"},"geometry":{"type":"Point","coordinates":[-0.45240562645407617,51.47130428586247]}},{"type":"Feature","properties":{"name":"Westbourne Park","network":"tube","lines":"Hammersmith & City, Circle"},"geometry":{"type":"Point","coordinates":[-0.201128498562751,51.52092170565548]}},{"type":"Feature","properties":{"name":"Hanger Lane","network":"tube","lines":"Central"},"geometry":{"type":"Point","coordinates":[-0.29266151952940184,51.53018685206952]}},{"type":"Feature","properties":{"name":"Gants Hill","network":"tube","lines":"Central"},"geometry":{"type":"Point","coordinates":[0.0662207253079739,51.57653621512804]}},{"type":"Feature","properties":{"name":"Bromley-by-Bow","network":"tube","lines":"District, Hammersmith & City"},"geometry":{"type":"Point","coordinates":[-0.011433820529312261,51.524761698353664]}},{"type":"Feature","properties":{"name":"Richmond","network":"tube","lines":"District"},"geometry":{"type":"Point","coordinates":[-0.30164651896365324,51.46311843184185]}},{"type":"Feature","properties":{"name":"Warwick Avenue","network":"tube","lines":"Bakerloo"},"geometry":{"type":"Point","coordinates":[-0.18358199597119332,51.52320057638629]}},{"type":"Feature","properties":{"name":"St. James's Park","network":"tube","lines":"District, Circle"},"geometry":{"type":"Point","coordinates":[-0.13360197131978188,51.49956253385714]}},{"type":"Feature","properties":{"name":"Turnpike Lane","network":"tube","lines":"Piccadilly"},"geometry":{"type":"Point","coordinates":[-0.10294667431452427,51.590254814816824]}},{"type":"Feature","properties":{"name":"Barking","network":"tube","lines":"District, Hammersmith & City"},"geometry":{"type":"Point","coordinates":[0.08020912956416305,51.5398861475186]}},{"type":"Feature","properties":{"name":"South Wimbledon","network":"tube","lines":"Northern"},"geometry":{"type":"Point","coordinates":[-0.19328173237438773,51.41498852650765]}},{"type":"Feature","properties":{"name":"Boston Manor","network":"tube","lines":"Piccadilly"},"geometry":{"type":"Point","coordinates":[-0.3255733159008408,51.49522013737868]}},{"type":"Feature","properties":{"name":"Stepney Green","network":"tube","lines":"District, Hammersmith & City"},"geometry":{"type":"Point","coordinates":[-0.046563851823428565,51.521862925881315]}},{"type":"Feature","properties":{"name":"High Barnet","network":"tube","lines":"Northern"},"geometry":{"type":"Point","coordinates":[-0.1941407842813015,51.65052493543903]}},{"type":"Feature","properties":{"name":"Eastcote","network":"tube","lines":"Metropolitan, Piccadilly"},"geometry":{"type":"Point","coordinates":[-0.39734688891609354,51.57651389440135]}},{"type":"Feature","properties":{"name":"Amersham","network":"tube","lines":"Metropolitan"},"geometry":{"type":"Point","coordinates":[-0.607682857863921,51.67414946195348]}},{"type":"Feature","properties":{"name":"Willesden Green","network":"tube","lines":"Jubilee"},"geometry":{"type":"Point","coordinates":[-0.22269193491695705,51.54937467603603]}},{"type":"Feature","properties":{"name":"Balham","network":"tube","lines":"Northern"},"geometry":{"type":"Point","coordinates":[-0.1526656036229402,51.443627749160605]}},{"type":"Feature","properties":{"name":"Camden Town","network":"tube","lines":"Northern"},"geometry":{"type":"Point","coordinates":[-0.1425972625834707,51.53923276318118]}},{"type":"Feature","properties":{"name":"Heathrow Terminal 5","network":"tube","lines":"Piccadilly"},"geometry":{"type":"Point","coordinates":[-0.4880201715324327,51.47252616104501]}},{"type":"Feature","properties":{"name":"Willesden Junction","network":"tube","lines":"Bakerloo"},"geometry":{"type":"Point","coordinates":[-0.24454925800993196,51.53240551111145]}},{"type":"Feature","properties":{"name":"East Finchley","network":"tube","lines":"Northern"},"geometry":{"type":"Point","coordinates":[-0.16501871608987795,51.58715665251159]}},{"type":"Feature","properties":{"name":"Highgate","network":"tube","lines":"Northern"},"geometry":{"type":"Point","coordinates":[-0.14644210997108473,51.57784661917365]}},{"type":"Feature","properties":{"name":"Chesham","network":"tube","lines":"Metropolitan"},"geometry":{"type":"Point","coordinates":[-0.6109571060419381,51.705226713482105]}},{"type":"Feature","properties":{"name":"Rickmansworth","network":"tube","lines":"Metropolitan"},"geometry":{"type":"Point","coordinates":[-0.47368448665146035,51.640291811549034]}},{"type":"Feature","properties":{"name":"Moor Park","network":"tube","lines":"Metropolitan"},"geometry":{"type":"Point","coordinates":[-0.4322653631721103,51.62987035873644]}},{"type":"Feature","properties":{"name":"Northwood","network":"tube","lines":"Metropolitan"},"geometry":{"type":"Point","coordinates":[-0.4239140859841954,51.61101734208224]}},{"type":"Feature","properties":{"name":"Croxley","network":"tube","lines":"Metropolitan"},"geometry":{"type":"Point","coordinates":[-0.44174635083989455,51.647081796]}},{"type":"Feature","properties":{"name":"Watford","network":"tube","lines":"Metropolitan"},"geometry":{"type":"Point","coordinates":[-0.41738964982161286,51.65748531377248]}},{"type":"Feature","properties":{"name":"Borough","network":"tube","lines":"Northern"},"geometry":{"type":"Point","coordinates":[-0.09328723829832106,51.50119271976896]}},{"type":"Feature","properties":{"name":"Old Street","network":"tube","lines":"Northern"},"geometry":{"type":"Point","coordinates":[-0.08761091787423737,51.52508704473688]}},{"type":"Feature","properties":{"name":"Angel","network":"tube","lines":"Northern"},"geometry":{"type":"Point","coordinates":[-0.10470033175496361,51.53148962533685]}},{"type":"Feature","properties":{"name":"Hendon Central","network":"tube","lines":"Northern"},"geometry":{"type":"Point","coordinates":[-0.2263210440956099,51.58317466514839]}},{"type":"Feature","properties":{"name":"Seven Sisters","network":"tube","lines":"Victoria"},"geometry":{"type":"Point","coordinates":[-0.07248470522781848,51.58339991950928]}},{"type":"Feature","properties":{"name":"Theydon Bois","network":"tube","lines":"Central"},"geometry":{"type":"Point","coordinates":[0.1033540749054235,51.671835805689284]}},{"type":"Feature","properties":{"name":"Kenton","network":"tube","lines":"Bakerloo"},"geometry":{"type":"Point","coordinates":[-0.3167054481214989,51.58161350162384]}},{"type":"Feature","properties":{"name":"Woodside Park","network":"tube","lines":"Northern"},"geometry":{"type":"Point","coordinates":[-0.18548609042087144,51.61808935404025]}},{"type":"Feature","properties":{"name":"Preston Road","network":"tube","lines":"Metropolitan"},"geometry":{"type":"Point","coordinates":[-0.29510629150049383,51.57201614793916]}},{"type":"Feature","properties":{"name":"WEST INDIA QUAY - DLR","network":"dlr","lines":"DLR"},"geometry":{"type":"Point","coordinates":[-0.020177736285384752,51.507485017443194]}},{"type":"Feature","properties":{"name":"WESTFERRY - DLR","network":"dlr","lines":"DLR"},"geometry":{"type":"Point","coordinates":[-0.026892513658037277,51.50950475014965]}},{"type":"Feature","properties":{"name":"BANK - DLR","network":"dlr","lines":"DLR"},"geometry":{"type":"Point","coordinates":[-0.08890168305432751,51.513373991932895]}},{"type":"Feature","properties":{"name":"STRATFORD - DLR","network":"dlr","lines":"DLR"},"geometry":{"type":"Point","coordinates":[-0.003188497125807991,51.5413794566914]}},{"type":"Feature","properties":{"name":"STAR LANE - DLR","network":"dlr","lines":"DLR"},"geometry":{"type":"Point","coordinates":[0.004186186863187749,51.52082129161155]}},{"type":"Feature","properties":{"name":"ABBEY ROAD - DLR","network":"dlr","lines":"DLR"},"geometry":{"type":"Point","coordinates":[0.003713398350187714,51.532376571292225]}},{"type":"Feature","properties":{"name":"STRATFORD INTERNATIONAL - DLR","network":"dlr","lines":"DLR"},"geometry":{"type":"Point","coordinates":[-0.009426016003569215,51.54484880414522]}},{"type":"Feature","properties":{"name":"ROYAL ALBERT - DLR","network":"dlr","lines":"DLR"},"geometry":{"type":"Point","coordinates":[0.045890833166885706,51.50841109311347]}},{"type":"Feature","properties":{"name":"ROYAL VICTORIA - DLR","network":"dlr","lines":"DLR"},"geometry":{"type":"Point","coordinates":[0.017753775958210025,51.50923167399555]}},{"type":"Feature","properties":{"name":"WEST SILVERTOWN - DLR","network":"dlr","lines":"DLR"},"geometry":{"type":"Point","coordinates":[0.02234383120243248,51.50289357525551]}},{"type":"Feature","properties":{"name":"ALL SAINTS - DLR","network":"dlr","lines":"DLR"},"geometry":{"type":"Point","coordinates":[-0.013048681481394209,51.511024565229754]}},{"type":"Feature","properties":{"name":"BLACKWALL - DLR","network":"dlr","lines":"DLR"},"geometry":{"type":"Point","coordinates":[-0.007143563845183111,51.507965641904036]}},{"type":"Feature","properties":{"name":"BOW CHURCH - DLR","network":"dlr","lines":"DLR"},"geometry":{"type":"Point","coordinates":[-0.020772484150976957,51.52766651610291]}},{"type":"Feature","properties":{"name":"CANARY WHARF - DLR","network":"dlr","lines":"DLR"},"geometry":{"type":"Point","coordinates":[-0.020928654645212794,51.50512358714754]}},{"type":"Feature","properties":{"name":"CANNING TOWN - DLR","network":"dlr","lines":"DLR"},"geometry":{"type":"Point","coordinates":[0.008177720759156404,51.51390930328057]}},{"type":"Feature","properties":{"name":"CUTTY SARK - DLR","network":"dlr","lines":"DLR"},"geometry":{"type":"Point","coordinates":[-0.011056401727468072,51.48167340532096]}},{"type":"Feature","properties":{"name":"DEPTFORD BRIDGE - DLR","network":"dlr","lines":"DLR"},"geometry":{"type":"Point","coordinates":[-0.022436907159057856,51.47430287003055]}},{"type":"Feature","properties":{"name":"DEVONS ROAD - DLR","network":"dlr","lines":"DLR"},"geometry":{"type":"Point","coordinates":[-0.017451779932080337,51.522466291119834]}},{"type":"Feature","properties":{"name":"EAST INDIA - DLR","network":"dlr","lines":"DLR"},"geometry":{"type":"Point","coordinates":[-0.002268081672201533,51.50938442237342]}},{"type":"Feature","properties":{"name":"GREENWICH - DLR","network":"dlr","lines":"DLR"},"geometry":{"type":"Point","coordinates":[-0.013428811505617828,51.47812535701244]}},{"type":"Feature","properties":{"name":"HERON QUAYS - DLR","network":"dlr","lines":"DLR"},"geometry":{"type":"Point","coordinates":[-0.021424132268538443,51.5033333196928]}},{"type":"Feature","properties":{"name":"ISLAND GARDENS - DLR","network":"dlr","lines":"DLR"},"geometry":{"type":"Point","coordinates":[-0.010475819585116727,51.488057626570786]}},{"type":"Feature","properties":{"name":"LANGDON PARK - DLR","network":"dlr","lines":"DLR"},"geometry":{"type":"Point","coordinates":[-0.014097321791186477,51.515080226994144]}},{"type":"Feature","properties":{"name":"LIMEHOUSE - DLR","network":"dlr","lines":"DLR"},"geometry":{"type":"Point","coordinates":[-0.03968483894511013,51.5123094986225]}},{"type":"Feature","properties":{"name":"MUDCHUTE - DLR","network":"dlr","lines":"DLR"},"geometry":{"type":"Point","coordinates":[-0.015005630343577514,51.49088635296638]}},{"type":"Feature","properties":{"name":"POPLAR - DLR","network":"dlr","lines":"DLR"},"geometry":{"type":"Point","coordinates":[-0.017199211514348424,51.50771346526284]}},{"type":"Feature","properties":{"name":"PUDDING MILL LANE - DLR","network":"dlr","lines":"DLR"},"geometry":{"type":"Point","coordinates":[-0.013942710416313321,51.53419679360275]}},{"type":"Feature","properties":{"name":"SOUTH QUAY - DLR","network":"dlr","lines":"DLR"},"geometry":{"type":"Point","coordinates":[-0.019006109703956463,51.50061250069552]}},{"type":"Feature","properties":{"name":"TOWER GATEWAY - DLR","network":"dlr","lines":"DLR"},"geometry":{"type":"Point","coordinates":[-0.07464837827701268,51.51062273854872]}},{"type":"Feature","properties":{"name":"BECKTON - DLR","network":"dlr","lines":"DLR"},"geometry":{"type":"Point","coordinates":[0.06184150662639081,51.51441754485004]}},{"type":"Feature","properties":{"name":"CUSTOM HOUSE - DLR","network":"dlr","lines":"DLR"},"geometry":{"type":"Point","coordinates":[0.026552513617076633,51.50973631953186]}},{"type":"Feature","properties":{"name":"CYPRUS - DLR","network":"dlr","lines":"DLR"},"geometry":{"type":"Point","coordinates":[0.06396629013345129,51.508498768963165]}},{"type":"Feature","properties":{"name":"GALLIONS REACH - DLR","network":"dlr","lines":"DLR"},"geometry":{"type":"Point","coordinates":[0.07178477494396272,51.50898130758072]}},{"type":"Feature","properties":{"name":"KING GEORGE V - DLR","network":"dlr","lines":"DLR"},"geometry":{"type":"Point","coordinates":[0.06231919333091232,51.50202588068831]}},{"type":"Feature","properties":{"name":"PONTOON DOCK - DLR","network":"dlr","lines":"DLR"},"geometry":{"type":"Point","coordinates":[0.03325315567403105,51.50228214282936]}},{"type":"Feature","properties":{"name":"PRINCE REGENT - DLR","network":"dlr","lines":"DLR"},"geometry":{"type":"Point","coordinates":[0.03421746223737286,51.50936967595946]}},{"type":"Feature","properties":{"name":"WEST HAM - DLR","network":"dlr","lines":"DLR"},"geometry":{"type":"Point","coordinates":[0.005046144682202491,51.52825292196381]}},{"type":"Feature","properties":{"name":"STRATFORD HIGH STREET - DLR","network":"dlr","lines":"DLR"},"geometry":{"type":"Point","coordinates":[-0.0007245948019131509,51.5380370925482]}},{"type":"Feature","properties":{"name":"BECKTON PARK - DLR","network":"dlr","lines":"DLR"},"geometry":{"type":"Point","coordinates":[0.05495735255581428,51.508774060138336]}},{"type":"Feature","properties":{"name":"LONDON CITY AIRPORT - DLR","network":"dlr","lines":"DLR"},"geometry":{"type":"Point","coordinates":[0.04817115058071812,51.50366798872946]}},{"type":"Feature","properties":{"name":"WOOLWICH ARSENAL - DLR","network":"dlr","lines":"DLR"},"geometry":{"type":"Point","coordinates":[0.06889142802844694,51.48998538831735]}},{"type":"Feature","properties":{"name":"CROSSHARBOUR - DLR","network":"dlr","lines":"DLR"},"geometry":{"type":"Point","coordinates":[-0.014456023930310397,51.49590417346258]}},{"type":"Feature","properties":{"name":"ELVERSON ROAD - DLR","network":"dlr","lines":"DLR"},"geometry":{"type":"Point","coordinates":[-0.0163585048199871,51.46869625652683]}},{"type":"Feature","properties":{"name":"LEWISHAM - DLR","network":"dlr","lines":"DLR"},"geometry":{"type":"Point","coordinates":[-0.014057322460437881,51.46565352987356]}},{"type":"Feature","properties":{"name":"SHADWELL - DLR","network":"dlr","lines":"DLR"},"geometry":{"type":"Point","coordinates":[-0.056717747665025395,51.51169382230157]}},{"type":"Feature","properties":{"name":"Forest Gate","network":"elizabeth","lines":"Elizabeth Line"},"geometry":{"type":"Point","coordinates":[0.023666182989344007,51.54923384567839]}},{"type":"Feature","properties":{"name":"Ilford","network":"elizabeth","lines":"Elizabeth Line"},"geometry":{"type":"Point","coordinates":[0.06892058818064942,51.55901706207804]}},{"type":"Feature","properties":{"name":"Seven Kings","network":"elizabeth","lines":"Elizabeth Line"},"geometry":{"type":"Point","coordinates":[0.09609952227982228,51.56394852645816]}},{"type":"Feature","properties":{"name":"Goodmayes","network":"elizabeth","lines":"Elizabeth Line"},"geometry":{"type":"Point","coordinates":[0.11186200684312621,51.56578808628506]}},{"type":"Feature","properties":{"name":"Romford","network":"elizabeth","lines":"Elizabeth Line"},"geometry":{"type":"Point","coordinates":[0.18231061472585636,51.57469149851562]}},{"type":"Feature","properties":{"name":"Gidea Park","network":"elizabeth","lines":"Elizabeth Line"},"geometry":{"type":"Point","coordinates":[0.20625245999729291,51.582061156952136]}},{"type":"Feature","properties":{"name":"Custom House","network":"elizabeth","lines":"Elizabeth Line"},"geometry":{"type":"Point","coordinates":[0.028601072119328247,51.50982668996128]}},{"type":"Feature","properties":{"name":"Maryland","network":"elizabeth","lines":"Elizabeth Line"},"geometry":{"type":"Point","coordinates":[0.005996063796467981,51.54597757608401]}},{"type":"Feature","properties":{"name":"Abbey Wood","network":"elizabeth","lines":"Elizabeth Line"},"geometry":{"type":"Point","coordinates":[0.12057235421047234,51.49107437267298]}},{"type":"Feature","properties":{"name":"Woolwich","network":"elizabeth","lines":"Elizabeth Line"},"geometry":{"type":"Point","coordinates":[0.07214616600616248,51.49166826725388]}},{"type":"Feature","properties":{"name":"Harold Wood","network":"elizabeth","lines":"Elizabeth Line"},"geometry":{"type":"Point","coordinates":[0.2346790557467401,51.59344151755303]}},{"type":"Feature","properties":{"name":"Brentwood","network":"elizabeth","lines":"Elizabeth Line"},"geometry":{"type":"Point","coordinates":[0.30086380201493584,51.61355631161671]}},{"type":"Feature","properties":{"name":"Langley","network":"elizabeth","lines":"Elizabeth Line"},"geometry":{"type":"Point","coordinates":[-0.5412204785432269,51.507730713600864]}},{"type":"Feature","properties":{"name":"Slough","network":"elizabeth","lines":"Elizabeth Line"},"geometry":{"type":"Point","coordinates":[-0.5913117614867144,51.51209557007257]}},{"type":"Feature","properties":{"name":"Burnham","network":"elizabeth","lines":"Elizabeth Line"},"geometry":{"type":"Point","coordinates":[-0.6471394974632122,51.52349116530519]}},{"type":"Feature","properties":{"name":"Taplow","network":"elizabeth","lines":"Elizabeth Line"},"geometry":{"type":"Point","coordinates":[-0.6811262208224063,51.52322562576741]}},{"type":"Feature","properties":{"name":"Iver","network":"elizabeth","lines":"Elizabeth Line"},"geometry":{"type":"Point","coordinates":[-0.5060621353694431,51.508587455084665]}},{"type":"Feature","properties":{"name":"Maidenhead","network":"elizabeth","lines":"Elizabeth Line"},"geometry":{"type":"Point","coordinates":[-0.7228167651284839,51.51838643851638]}},{"type":"Feature","properties":{"name":"West Drayton","network":"elizabeth","lines":"Elizabeth Line"},"geometry":{"type":"Point","coordinates":[-0.4717296045284061,51.50988968060187]}},{"type":"Feature","properties":{"name":"Southall","network":"elizabeth","lines":"Elizabeth Line"},"geometry":{"type":"Point","coordinates":[-0.3771033368680263,51.50614615931379]}},{"type":"Feature","properties":{"name":"Hanwell","network":"elizabeth","lines":"Elizabeth Line"},"geometry":{"type":"Point","coordinates":[-0.33829097803125824,51.511782613854166]}},{"type":"Feature","properties":{"name":"Acton Main Line","network":"elizabeth","lines":"Elizabeth Line"},"geometry":{"type":"Point","coordinates":[-0.26759769238279263,51.51708449616815]}},{"type":"Feature","properties":{"name":"Twyford","network":"elizabeth","lines":"Elizabeth Line"},"geometry":{"type":"Point","coordinates":[-0.8631171658255807,51.475448585495776]}},{"type":"Feature","properties":{"name":"Reading","network":"elizabeth","lines":"Elizabeth Line"},"geometry":{"type":"Point","coordinates":[-0.9728641305873242,51.45916653887817]}},{"type":"Feature","properties":{"name":"Manor Park","network":"elizabeth","lines":"Elizabeth Line"},"geometry":{"type":"Point","coordinates":[0.04539064788440045,51.552198511243645]}},{"type":"Feature","properties":{"name":"Chadwell Heath","network":"elizabeth","lines":"Elizabeth Line"},"geometry":{"type":"Point","coordinates":[0.12830188045154464,51.568020612734635]}},{"type":"Feature","properties":{"name":"Shenfield","network":"elizabeth","lines":"Elizabeth Line"},"geometry":{"type":"Point","coordinates":[0.32982380208184997,51.63058560003884]}},{"type":"Feature","properties":{"name":"Hayes & Harlington","network":"elizabeth","lines":"Elizabeth Line"},"geometry":{"type":"Point","coordinates":[-0.4193567146543295,51.5030372503978]}},{"type":"Feature","properties":{"name":"West Ealing","network":"elizabeth","lines":"Elizabeth Line"},"geometry":{"type":"Point","coordinates":[-0.32113638602903577,51.51347127948643]}},{"type":"Feature","properties":{"name":"London Fields","network":"overground","lines":"London Overground"},"geometry":{"type":"Point","coordinates":[-0.05794775327392723,51.54103026455701]}},{"type":"Feature","properties":{"name":"Canonbury","network":"overground","lines":"London Overground"},"geometry":{"type":"Point","coordinates":[-0.09253034821643116,51.548603592978104]}},{"type":"Feature","properties":{"name":"Dalston Junction","network":"overground","lines":"London Overground"},"geometry":{"type":"Point","coordinates":[-0.07503895708076994,51.54600652277674]}},{"type":"Feature","properties":{"name":"Edmondton Green","network":"overground","lines":"London Overground"},"geometry":{"type":"Point","coordinates":[-0.061279547045448676,51.62478917359975]}},{"type":"Feature","properties":{"name":"Haggerston","network":"overground","lines":"London Overground"},"geometry":{"type":"Point","coordinates":[-0.07555760443624038,51.53879150542173]}},{"type":"Feature","properties":{"name":"Hoxton","network":"overground","lines":"London Overground"},"geometry":{"type":"Point","coordinates":[-0.07563040772098924,51.531446548584164]}},{"type":"Feature","properties":{"name":"New Cross","network":"overground","lines":"London Overground"},"geometry":{"type":"Point","coordinates":[-0.03242580233604171,51.47670370793875]}},{"type":"Feature","properties":{"name":"New Cross Gate","network":"overground","lines":"London Overground"},"geometry":{"type":"Point","coordinates":[-0.040657278542748435,51.47588713327536]}},{"type":"Feature","properties":{"name":"Rotherhithe","network":"overground","lines":"London Overground"},"geometry":{"type":"Point","coordinates":[-0.05221546949412037,51.501133310537725]}},{"type":"Feature","properties":{"name":"Shadwell","network":"overground","lines":"London Overground"},"geometry":{"type":"Point","coordinates":[-0.056911589119450094,51.51175535285928]}},{"type":"Feature","properties":{"name":"Shepherds Bush","network":"overground","lines":"London Overground"},"geometry":{"type":"Point","coordinates":[-0.21755958965068337,51.50524724279172]}},{"type":"Feature","properties":{"name":"Shoreditch High Street","network":"overground","lines":"London Overground"},"geometry":{"type":"Point","coordinates":[-0.0746597419010142,51.52326081696866]}},{"type":"Feature","properties":{"name":"St. James Street","network":"overground","lines":"London Overground"},"geometry":{"type":"Point","coordinates":[-0.03217609160822401,51.581170535793014]}},{"type":"Feature","properties":{"name":"Surrey Quays","network":"overground","lines":"London Overground"},"geometry":{"type":"Point","coordinates":[-0.04774776705681204,51.49339466582607]}},{"type":"Feature","properties":{"name":"Wapping","network":"overground","lines":"London Overground"},"geometry":{"type":"Point","coordinates":[-0.05591406020496882,51.50437948774709]}},{"type":"Feature","properties":{"name":"Wood Street","network":"overground","lines":"London Overground"},"geometry":{"type":"Point","coordinates":[-0.00211668725973897,51.58673465566852]}},{"type":"Feature","properties":{"name":"Woodgrange Park","network":"overground","lines":"London Overground"},"geometry":{"type":"Point","coordinates":[0.044542677680742306,51.54921158701664]}},{"type":"Feature","properties":{"name":"Wanstead Park","network":"overground","lines":"London Overground"},"geometry":{"type":"Point","coordinates":[0.02575245977633715,51.55180353407938]}},{"type":"Feature","properties":{"name":"Bruce Grove","network":"overground","lines":"London Overground"},"geometry":{"type":"Point","coordinates":[-0.06993148253542812,51.593888911729366]}},{"type":"Feature","properties":{"name":"White Hart Lane","network":"overground","lines":"London Overground"},"geometry":{"type":"Point","coordinates":[-0.07100332772434953,51.605048447247235]}},{"type":"Feature","properties":{"name":"Silver Street","network":"overground","lines":"London Overground"},"geometry":{"type":"Point","coordinates":[-0.06714204896684425,51.61489009007415]}},{"type":"Feature","properties":{"name":"Bush Hill Park","network":"overground","lines":"London Overground"},"geometry":{"type":"Point","coordinates":[-0.06923507166203137,51.64149099162686]}},{"type":"Feature","properties":{"name":"Enfield Town","network":"overground","lines":"London Overground"},"geometry":{"type":"Point","coordinates":[-0.07879062618625189,51.65178442698056]}},{"type":"Feature","properties":{"name":"Southbury","network":"overground","lines":"London Overground"},"geometry":{"type":"Point","coordinates":[-0.05242821558020503,51.64875802389416]}},{"type":"Feature","properties":{"name":"Turkey Street","network":"overground","lines":"London Overground"},"geometry":{"type":"Point","coordinates":[-0.047081356757000974,51.67291475055204]}},{"type":"Feature","properties":{"name":"Theobalds Grove","network":"overground","lines":"London Overground"},"geometry":{"type":"Point","coordinates":[-0.03500540255823477,51.69224316529671]}},{"type":"Feature","properties":{"name":"Cheshunt","network":"overground","lines":"London Overground"},"geometry":{"type":"Point","coordinates":[-0.02379761775528709,51.702669089131376]}},{"type":"Feature","properties":{"name":"Clapton","network":"overground","lines":"London Overground"},"geometry":{"type":"Point","coordinates":[-0.05671851703760822,51.56176669283404]}},{"type":"Feature","properties":{"name":"Highams Park","network":"overground","lines":"London Overground"},"geometry":{"type":"Point","coordinates":[-0.000281605753141863,51.60834007263004]}},{"type":"Feature","properties":{"name":"Chingford","network":"overground","lines":"London Overground"},"geometry":{"type":"Point","coordinates":[0.01008572265163637,51.633164356594996]}},{"type":"Feature","properties":{"name":"Emerson Park","network":"overground","lines":"London Overground"},"geometry":{"type":"Point","coordinates":[0.22026659512822427,51.568606669298354]}},{"type":"Feature","properties":{"name":"Cambridge Heath","network":"overground","lines":"London Overground"},"geometry":{"type":"Point","coordinates":[-0.057398743371934347,51.53218381978886]}},{"type":"Feature","properties":{"name":"Hackney Downs","network":"overground","lines":"London Overground"},"geometry":{"type":"Point","coordinates":[-0.06062660448506036,51.54881479336229]}},{"type":"Feature","properties":{"name":"Rectory Road","network":"overground","lines":"London Overground"},"geometry":{"type":"Point","coordinates":[-0.06865442930385991,51.559147556666325]}},{"type":"Feature","properties":{"name":"Stoke Newington","network":"overground","lines":"London Overground"},"geometry":{"type":"Point","coordinates":[-0.07210970329645461,51.56466550271946]}},{"type":"Feature","properties":{"name":"Stamford Hill","network":"overground","lines":"London Overground"},"geometry":{"type":"Point","coordinates":[-0.07652633913763339,51.574624497791966]}},{"type":"Feature","properties":{"name":"Watford Junction","network":"overground","lines":"London Overground"},"geometry":{"type":"Point","coordinates":[-0.3958189463822002,51.663239031997804]}},{"type":"Feature","properties":{"name":"Watford High Street","network":"overground","lines":"London Overground"},"geometry":{"type":"Point","coordinates":[-0.39186983704375844,51.65253387541249]}},{"type":"Feature","properties":{"name":"Headstone Lane","network":"overground","lines":"London Overground"},"geometry":{"type":"Point","coordinates":[-0.3571904354793234,51.60267596278432]}},{"type":"Feature","properties":{"name":"Hatch End","network":"overground","lines":"London Overground"},"geometry":{"type":"Point","coordinates":[-0.36853483022850625,51.60938884064352]}},{"type":"Feature","properties":{"name":"Carpenders Park","network":"overground","lines":"London Overground"},"geometry":{"type":"Point","coordinates":[-0.3854765860675238,51.62772631210164]}},{"type":"Feature","properties":{"name":"Bushey","network":"overground","lines":"London Overground"},"geometry":{"type":"Point","coordinates":[-0.3852936358216279,51.64471380195774]}},{"type":"Feature","properties":{"name":"Wandsworth Road","network":"overground","lines":"London Overground"},"geometry":{"type":"Point","coordinates":[-0.1384254009974208,51.46996212961711]}},{"type":"Feature","properties":{"name":"South Acton","network":"overground","lines":"London Overground"},"geometry":{"type":"Point","coordinates":[-0.27006285465671265,51.499616958112156]}},{"type":"Feature","properties":{"name":"Kensington Olympia","network":"overground","lines":"London Overground"},"geometry":{"type":"Point","coordinates":[-0.20950662343458393,51.49748087404656]}},{"type":"Feature","properties":{"name":"Clapham Junction","network":"overground","lines":"London Overground"},"geometry":{"type":"Point","coordinates":[-0.17173093340764822,51.464908978397965]}},{"type":"Feature","properties":{"name":"Clapham High Street","network":"overground","lines":"London Overground"},"geometry":{"type":"Point","coordinates":[-0.1323016799621986,51.46548982070019]}},{"type":"Feature","properties":{"name":"Imperial Wharf","network":"overground","lines":"London Overground"},"geometry":{"type":"Point","coordinates":[-0.18307293570760425,51.475285135073825]}},{"type":"Feature","properties":{"name":"Upper Holloway","network":"overground","lines":"London Overground"},"geometry":{"type":"Point","coordinates":[-0.12941526783483526,51.56369305390858]}},{"type":"Feature","properties":{"name":"South Hampstead","network":"overground","lines":"London Overground"},"geometry":{"type":"Point","coordinates":[-0.17791754241402802,51.5413731076005]}},{"type":"Feature","properties":{"name":"Queens Park","network":"overground","lines":"London Overground"},"geometry":{"type":"Point","coordinates":[-0.2054121880369135,51.53383845275215]}},{"type":"Feature","properties":{"name":"Kilburn High Road","network":"overground","lines":"London Overground"},"geometry":{"type":"Point","coordinates":[-0.19123169627465633,51.53764939116077]}},{"type":"Feature","properties":{"name":"Kentish Town West","network":"overground","lines":"London Overground"},"geometry":{"type":"Point","coordinates":[-0.14677634627718267,51.54708908713054]}},{"type":"Feature","properties":{"name":"Kensal Rise","network":"overground","lines":"London Overground"},"geometry":{"type":"Point","coordinates":[-0.22048195686596683,51.5343594211676]}},{"type":"Feature","properties":{"name":"Hampstead Heath","network":"overground","lines":"London Overground"},"geometry":{"type":"Point","coordinates":[-0.1656972697357185,51.55518163218042]}},{"type":"Feature","properties":{"name":"Gospel Oak","network":"overground","lines":"London Overground"},"geometry":{"type":"Point","coordinates":[-0.15134545321552012,51.55550962308157]}},{"type":"Feature","properties":{"name":"Finchley Road & Frognal","network":"overground","lines":"London Overground"},"geometry":{"type":"Point","coordinates":[-0.18321089278072028,51.55022858555663]}},{"type":"Feature","properties":{"name":"Camden Road","network":"overground","lines":"London Overground"},"geometry":{"type":"Point","coordinates":[-0.13911138523587122,51.541903821390825]}},{"type":"Feature","properties":{"name":"Brondesbury Park","network":"overground","lines":"London Overground"},"geometry":{"type":"Point","coordinates":[-0.2104738304189681,51.540413808118494]}},{"type":"Feature","properties":{"name":"Brondesbury","network":"overground","lines":"London Overground"},"geometry":{"type":"Point","coordinates":[-0.20232809747861985,51.54514362436893]}},{"type":"Feature","properties":{"name":"Acton Central","network":"overground","lines":"London Overground"},"geometry":{"type":"Point","coordinates":[-0.26290510008207835,51.50848616130536]}},{"type":"Feature","properties":{"name":"West Croydon","network":"overground","lines":"London Overground"},"geometry":{"type":"Point","coordinates":[-0.10179168465934474,51.379287919189515]}},{"type":"Feature","properties":{"name":"Norwood Junction","network":"overground","lines":"London Overground"},"geometry":{"type":"Point","coordinates":[-0.07468422401430526,51.39721529556543]}},{"type":"Feature","properties":{"name":"Anerley","network":"overground","lines":"London Overground"},"geometry":{"type":"Point","coordinates":[-0.06538925654625431,51.41273628604026]}},{"type":"Feature","properties":{"name":"Sydenham","network":"overground","lines":"London Overground"},"geometry":{"type":"Point","coordinates":[-0.0543676491562664,51.4274460101249]}},{"type":"Feature","properties":{"name":"Queens Road Peckham","network":"overground","lines":"London Overground"},"geometry":{"type":"Point","coordinates":[-0.05686216549465122,51.47443030393103]}},{"type":"Feature","properties":{"name":"Penge West","network":"overground","lines":"London Overground"},"geometry":{"type":"Point","coordinates":[-0.0603436710962674,51.41778781432201]}},{"type":"Feature","properties":{"name":"Peckham Rye","network":"overground","lines":"London Overground"},"geometry":{"type":"Point","coordinates":[-0.070519059156631,51.46947030465756]}},{"type":"Feature","properties":{"name":"Honor Oak Park","network":"overground","lines":"London Overground"},"geometry":{"type":"Point","coordinates":[-0.04490551934772804,51.450625044400276]}},{"type":"Feature","properties":{"name":"Forest Hill","network":"overground","lines":"London Overground"},"geometry":{"type":"Point","coordinates":[-0.053058502872591506,51.43929481860989]}},{"type":"Feature","properties":{"name":"Denmark Hill","network":"overground","lines":"London Overground"},"geometry":{"type":"Point","coordinates":[-0.08948912990106594,51.468035899761965]}},{"type":"Feature","properties":{"name":"Crystal Palace","network":"overground","lines":"London Overground"},"geometry":{"type":"Point","coordinates":[-0.07221359579784832,51.417992499090644]}},{"type":"Feature","properties":{"name":"Brockley","network":"overground","lines":"London Overground"},"geometry":{"type":"Point","coordinates":[-0.037578039531897194,51.464423533929576]}},{"type":"Feature","properties":{"name":"Walthamstow Queens Road","network":"overground","lines":"London Overground"},"geometry":{"type":"Point","coordinates":[-0.023755096623207867,51.58152471845769]}},{"type":"Feature","properties":{"name":"South Tottenham","network":"overground","lines":"London Overground"},"geometry":{"type":"Point","coordinates":[-0.07171953980569144,51.580437710391024]}},{"type":"Feature","properties":{"name":"Leytonstone High Road","network":"overground","lines":"London Overground"},"geometry":{"type":"Point","coordinates":[0.008143692049997778,51.56370833033528]}},{"type":"Feature","properties":{"name":"Leyton Midland Road","network":"overground","lines":"London Overground"},"geometry":{"type":"Point","coordinates":[-0.006879388377188562,51.56938263664524]}},{"type":"Feature","properties":{"name":"Homerton","network":"overground","lines":"London Overground"},"geometry":{"type":"Point","coordinates":[-0.04291923294807549,51.54707842938229]}},{"type":"Feature","properties":{"name":"Harringay Green Lanes","network":"overground","lines":"London Overground"},"geometry":{"type":"Point","coordinates":[-0.09770901508958466,51.57730212487604]}},{"type":"Feature","properties":{"name":"Hackney Wick","network":"overground","lines":"London Overground"},"geometry":{"type":"Point","coordinates":[-0.024360279493614363,51.543429163590055]}},{"type":"Feature","properties":{"name":"Hackney Central","network":"overground","lines":"London Overground"},"geometry":{"type":"Point","coordinates":[-0.05711850931120293,51.5470566925712]}},{"type":"Feature","properties":{"name":"Dalston Kingsland","network":"overground","lines":"London Overground"},"geometry":{"type":"Point","coordinates":[-0.07580287761540719,51.54815986969507]}},{"type":"Feature","properties":{"name":"Crouch Hill","network":"overground","lines":"London Overground"},"geometry":{"type":"Point","coordinates":[-0.11628217098466467,51.571738992321876]}},{"type":"Feature","properties":{"name":"Caledonian Road & Barnsbury","network":"overground","lines":"London Overground"},"geometry":{"type":"Point","coordinates":[-0.11434003265911144,51.543686922509465]}},{"type":"Feature","properties":{"name":"Barking Riverside","network":"overground","lines":"London Overground"},"geometry":{"type":"Point","coordinates":[0.11591592358992785,51.519272683238036]}}]}